[{"OBJECT_NAME":"ONEWEB-0207","OBJECT_ID":"2021-031AJ","EPOCH":"2026-05-29T20:00:40.767552","MEAN_MOTION":13.14501886,"ECCENTRICITY":0.0002075,"INCLINATION":87.8953,"RA_OF_ASC_NODE":293.3577,"ARG_OF_PERICENTER":103.6374,"MEAN_ANOMALY":256.4987,"EPHEMERIS_TYPE":0,"CLASSIFICATION_TYPE":"U","NORAD_CAT_ID":48242,"ELEMENT_SET_NO":999,"REV_AT_EPOCH":24588,"BSTAR":0.00028086,"MEAN_MOTION_DOT":1.17e-06,"MEAN_MOTION_DDOT":0.0},{"OBJECT_NAME":"ONEWEB-0208","OBJECT_ID":"2021-031AK","EPOCH":"2026-05-29T19:34:25.825152","MEAN_MOTION":13.14502455,"ECCENTRICITY":0.0001577,"INCLINATION":87.8948,"RA_OF_ASC_NODE":293.3683,"ARG_OF_PERICENTER":107.0315,"MEAN_ANOMALY":253.0988,"EPHEMERIS_TYPE":0,"CLASSIFICATION_TYPE":"U","NORAD_CAT_ID":48243,"ELEMENT_SET_NO":999,"REV_AT_EPOCH":24589,"BSTAR":-0.0006065500000000001,"MEAN_MOTION_DOT":-2.12e-06,"MEAN_MOTION_DDOT":0.0},{"OBJECT_NAME":"ONEWEB-0200","OBJECT_ID":"2021-031AL","EPOCH":"2026-05-30T03:49:56.476416","MEAN_MOTION":13.14501362,"ECCENTRICITY":0.0001819,"INCLINATION":87.8946,"RA_OF_ASC_NODE":293.286,"ARG_OF_PERICENTER":102.2553,"MEAN_ANOMALY":257.8781,"EPHEMERIS_TYPE":0,"CLASSIFICATION_TYPE":"U","NORAD_CAT_ID":48244,"ELEMENT_SET_NO":999,"REV_AT_EPOCH":24586,"BSTAR":0.00054218,"MEAN_MOTION_DOT":2.14e-06,"MEAN_MOTION_DDOT":0.0},{"OBJECT_NAME":"ONEWEB-0217","OBJECT_ID":"2021-031AM","EPOCH":"2026-05-29T20:54:20.378016","MEAN_MOTION":13.14501148,"ECCENTRICITY":0.0001611,"INCLINATION":87.8954,"RA_OF_ASC_NODE":293.3475,"ARG_OF_PERICENTER":108.2208,"MEAN_ANOMALY":251.9097,"EPHEMERIS_TYPE":0,"CLASSIFICATION_TYPE":"U","NORAD_CAT_ID":48245,"ELEMENT_SET_NO":999,"REV_AT_EPOCH":24577,"BSTAR":-0.00023130999999999998,"MEAN_MOTION_DOT":-7.3e-07,"MEAN_MOTION_DDOT":0.0},{"OBJECT_NAME":"ONEWEB-0211","OBJECT_ID":"2021-045A","EPOCH":"2026-05-30T02:21:24.098112","MEAN_MOTION":13.16195578,"ECCENTRICITY":0.0001316,"INCLINATION":87.9001,"RA_OF_ASC_NODE":262.6894,"ARG_OF_PERICENTER":113.589,"MEAN_ANOMALY":246.5379,"EPHEMERIS_TYPE":0,"CLASSIFICATION_TYPE":"U","NORAD_CAT_ID":48767,"ELEMENT_SET_NO":999,"REV_AT_EPOCH":24206,"BSTAR":-0.00015452,"MEAN_MOTION_DOT":-4.6e-07,"MEAN_MOTION_DDOT":0.0},{"OBJECT_NAME":"ONEWEB-0223","OBJECT_ID":"2021-045B","EPOCH":"2026-05-29T18:53:51.009216","MEAN_MOTION":13.15547885,"ECCENTRICITY":0.0001484,"INCLINATION":87.9003,"RA_OF_ASC_NODE":262.8547,"ARG_OF_PERICENTER":99.4325,"MEAN_ANOMALY":260.6974,"EPHEMERIS_TYPE":0,"CLASSIFICATION_TYPE":"U","NORAD_CAT_ID":48768,"ELEMENT_SET_NO":999,"REV_AT_EPOCH":24198,"BSTAR":-0.00016707,"MEAN_MOTION_DOT":-5e-07,"MEAN_MOTION_DDOT":0.0},{"OBJECT_NAME":"ONEWEB-0230","OBJECT_ID":"2021-045C","EPOCH":"2026-05-29T18:12:45.960192","MEAN_MOTION":13.15547347,"ECCENTRICITY":0.0002052,"INCLINATION":87.8992,"RA_OF_ASC_NODE":262.8758,"ARG_OF_PERICENTER":98.7112,"MEAN_ANOMALY":261.4251,"EPHEMERIS_TYPE":0,"CLASSIFICATION_TYPE":"U","NORAD_CAT_ID":48769,"ELEMENT_SET_NO":999,"REV_AT_EPOCH":24224,"BSTAR":0.00036438999999999997,"MEAN_MOTION_DOT":1.5e-06,"MEAN_MOTION_DDOT":0.0},{"OBJECT_NAME":"ONEWEB-0237","OBJECT_ID":"2021-045D","EPOCH":"2026-05-29T17:56:47.773824","MEAN_MOTION":13.15550033,"ECCENTRICITY":0.000168,"INCLINATION":87.8993,"RA_OF_ASC_NODE":262.8798,"ARG_OF_PERICENTER":95.5901,"MEAN_ANOMALY":264.5421,"EPHEMERIS_TYPE":0,"CLASSIFICATION_TYPE":"U","NORAD_CAT_ID":48770,"ELEMENT_SET_NO":999,"REV_AT_EPOCH":24196,"BSTAR":9.5871e-05,"MEAN_MOTION_DOT":4.9e-07,"MEAN_MOTION_DDOT":0.0},{"OBJECT_NAME":"ONEWEB-0235","OBJECT_ID":"2021-045E","EPOCH":"2026-05-29T19:09:48.665952","MEAN_MOTION":13.15547357,"ECCENTRICITY":0.0001494,"INCLINATION":87.9005,"RA_OF_ASC_NODE":262.8536,"ARG_OF_PERICENTER":96.1641,"MEAN_ANOMALY":263.9659,"EPHEMERIS_TYPE":0,"CLASSIFICATION_TYPE":"U","NORAD_CAT_ID":48771,"ELEMENT_SET_NO":999,"REV_AT_EPOCH":24196,"BSTAR":-0.00045133,"MEAN_MOTION_DOT":-1.57e-06,"MEAN_MOTION_DDOT":0.0},{"OBJECT_NAME":"ONEWEB-0242","OBJECT_ID":"2021-045F","EPOCH":"2026-05-30T02:18:47.048832","MEAN_MOTION":13.15547622,"ECCENTRICITY":0.0001825,"INCLINATION":87.9007,"RA_OF_ASC_NODE":262.7908,"ARG_OF_PERICENTER":95.248,"MEAN_ANOMALY":264.8858,"EPHEMERIS_TYPE":0,"CLASSIFICATION_TYPE":"U","NORAD_CAT_ID":48772,"ELEMENT_SET_NO":999,"REV_AT_EPOCH":24204,"BSTAR":-0.00017787,"MEAN_MOTION_DOT":-5.4e-07,"MEAN_MOTION_DDOT":0.0},{"OBJECT_NAME":"ONEWEB-0241","OBJECT_ID":"2021-045G","EPOCH":"2026-05-29T18:42:26.372160","MEAN_MOTION":13.15547244,"ECCENTRICITY":0.0001502,"INCLINATION":87.8994,"RA_OF_ASC_NODE":262.8742,"ARG_OF_PERICENTER":107.2227,"MEAN_ANOMALY":252.9068,"EPHEMERIS_TYPE":0,"CLASSIFICATION_TYPE":"U","NORAD_CAT_ID":48773,"ELEMENT_SET_NO":999,"REV_AT_EPOCH":24191,"BSTAR":7.330700000000001e-05,"MEAN_MOTION_DOT":4e-07,"MEAN_MOTION_DDOT":0.0},{"OBJECT_NAME":"ONEWEB-0243","OBJECT_ID":"2021-045H","EPOCH":"2026-05-29T17:38:32.621856","MEAN_MOTION":13.15547391,"ECCENTRICITY":0.0001756,"INCLINATION":87.8995,"RA_OF_ASC_NODE":262.8954,"ARG_OF_PERICENTER":84.5531,"MEAN_ANOMALY":275.5799,"EPHEMERIS_TYPE":0,"CLASSIFICATION_TYPE":"U","NORAD_CAT_ID":48774,"ELEMENT_SET_NO":999,"REV_AT_EPOCH":24193,"BSTAR":-0.00023884,"MEAN_MOTION_DOT":-7.7e-07,"MEAN_MOTION_DDOT":0.0},{"OBJECT_NAME":"ONEWEB-0222","OBJECT_ID":"2021-045J","EPOCH":"2026-05-29T19:04:06.343968","MEAN_MOTION":13.15547621,"ECCENTRICITY":0.0001661,"INCLINATION":87.9003,"RA_OF_ASC_NODE":262.8496,"ARG_OF_PERICENTER":101.0869,"MEAN_ANOMALY":259.0448,"EPHEMERIS_TYPE":0,"CLASSIFICATION_TYPE":"U","NORAD_CAT_ID":48775,"ELEMENT_SET_NO":999,"REV_AT_EPOCH":24198,"BSTAR":-0.00031363999999999996,"MEAN_MOTION_DOT":-1.05e-06,"MEAN_MOTION_DDOT":0.0},{"OBJECT_NAME":"ONEWEB-0244","OBJECT_ID":"2021-045K","EPOCH":"2026-05-29T17:52:13.886688","MEAN_MOTION":13.15547341,"ECCENTRICITY":0.0001781,"INCLINATION":87.9008,"RA_OF_ASC_NODE":262.8528,"ARG_OF_PERICENTER":97.3269,"MEAN_ANOMALY":262.8064,"EPHEMERIS_TYPE":0,"CLASSIFICATION_TYPE":"U","NORAD_CAT_ID":48776,"ELEMENT_SET_NO":999,"REV_AT_EPOCH":24254,"BSTAR":4.1275e-05,"MEAN_MOTION_DOT":2.8e-07,"MEAN_MOTION_DDOT":0.0},{"OBJECT_NAME":"ONEWEB-0247","OBJECT_ID":"2021-045L","EPOCH":"2026-05-29T17:47:40.840224","MEAN_MOTION":13.15548139,"ECCENTRICITY":0.0001405,"INCLINATION":87.8993,"RA_OF_ASC_NODE":262.8884,"ARG_OF_PERICENTER":76.5924,"MEAN_ANOMALY":283.5363,"EPHEMERIS_TYPE":0,"CLASSIFICATION_TYPE":"U","NORAD_CAT_ID":48777,"ELEMENT_SET_NO":999,"REV_AT_EPOCH":24198,"BSTAR":-4.2911e-05,"MEAN_MOTION_DOT":-3e-08,"MEAN_MOTION_DDOT":0.0},{"OBJECT_NAME":"ONEWEB-0245","OBJECT_ID":"2021-045M","EPOCH":"2026-05-29T17:40:50.025504","MEAN_MOTION":13.15547809,"ECCENTRICITY":0.0001763,"INCLINATION":87.9007,"RA_OF_ASC_NODE":262.8669,"ARG_OF_PERICENTER":105.8166,"MEAN_ANOMALY":254.3159,"EPHEMERIS_TYPE":0,"CLASSIFICATION_TYPE":"U","NORAD_CAT_ID":48778,"ELEMENT_SET_NO":999,"REV_AT_EPOCH":24195,"BSTAR":-0.00025771,"MEAN_MOTION_DOT":-8.4e-07,"MEAN_MOTION_DDOT":0.0}]