ONEWEB-0207             
1 48242U 21031AJ  26149.83380518  .00000117  00000+0  28086-3 0  9990
2 48242  87.8953 293.3577 0002075 103.6374 256.4987 13.14501886245881
ONEWEB-0208             
1 48243U 21031AK  26149.81557668 -.00000212  00000+0 -60655-3 0  9997
2 48243  87.8948 293.3683 0001577 107.0315 253.0988 13.14502455245891
ONEWEB-0200             
1 48244U 21031AL  26150.15968144  .00000214  00000+0  54218-3 0  9990
2 48244  87.8946 293.2860 0001819 102.2553 257.8781 13.14501362245862
ONEWEB-0217             
1 48245U 21031AM  26149.87106919 -.00000073  00000+0 -23131-3 0  9997
2 48245  87.8954 293.3475 0001611 108.2208 251.9097 13.14501148245775
ONEWEB-0211             
1 48767U 21045A   26150.09819558 -.00000046  00000+0 -15452-3 0  9994
2 48767  87.9001 262.6894 0001316 113.5890 246.5379 13.16195578242060
ONEWEB-0223             
1 48768U 21045B   26149.78739594 -.00000050  00000+0 -16707-3 0  9999
2 48768  87.9003 262.8547 0001484  99.4325 260.6974 13.15547885241980
ONEWEB-0230             
1 48769U 21045C   26149.75886528  .00000150  00000+0  36439-3 0  9990
2 48769  87.8992 262.8758 0002052  98.7112 261.4251 13.15547347242249
ONEWEB-0237             
1 48770U 21045D   26149.74777516  .00000049  00000+0  95871-4 0  9990
2 48770  87.8993 262.8798 0001680  95.5901 264.5421 13.15550033241960
ONEWEB-0235             
1 48771U 21045E   26149.79847993 -.00000157  00000+0 -45133-3 0  9990
2 48771  87.9005 262.8536 0001494  96.1641 263.9659 13.15547357241968
ONEWEB-0242             
1 48772U 21045F   26150.09637788 -.00000054  00000+0 -17787-3 0  9995
2 48772  87.9007 262.7908 0001825  95.2480 264.8858 13.15547622242048
ONEWEB-0241             
1 48773U 21045G   26149.77947190  .00000040  00000+0  73307-4 0  9994
2 48773  87.8994 262.8742 0001502 107.2227 252.9068 13.15547244241911
ONEWEB-0243             
1 48774U 21045H   26149.73509979 -.00000077  00000+0 -23884-3 0  9996
2 48774  87.8995 262.8954 0001756  84.5531 275.5799 13.15547391241931
ONEWEB-0222             
1 48775U 21045J   26149.79451787 -.00000105  00000+0 -31364-3 0  9990
2 48775  87.9003 262.8496 0001661 101.0869 259.0448 13.15547621241987
ONEWEB-0244             
1 48776U 21045K   26149.74460517  .00000028  00000+0  41275-4 0  9992
2 48776  87.9008 262.8528 0001781  97.3269 262.8064 13.15547341242541
ONEWEB-0247             
1 48777U 21045L   26149.74144491 -.00000003  00000+0 -42911-4 0  9996
2 48777  87.8993 262.8884 0001405  76.5924 283.5363 13.15548139241984
ONEWEB-0245             
1 48778U 21045M   26149.73669011 -.00000084  00000+0 -25771-3 0  9999
2 48778  87.9007 262.8669 0001763 105.8166 254.3159 13.15547809241953
